[
  {
    "name": "KUIPER-00538",
    "noradId": "69608",
    "line1": "1 69608U 26140S   26197.57170450  .00013199  00000+0  36002-3 0  9992",
    "line2": "2 69608  51.8802 256.6705 0006865 346.1834  13.8964 15.37754753  5755"
  },
  {
    "name": "KUIPER-00540",
    "noradId": "69609",
    "line1": "1 69609U 26140T   26197.51929577  .00013040  00000+0  36471-3 0  9994",
    "line2": "2 69609  51.8800 257.0682 0006664  27.2165 332.9170 15.36985728  5744"
  },
  {
    "name": "KUIPER-00541",
    "noradId": "69610",
    "line1": "1 69610U 26140U   26197.43015212  .00012665  00000+0  33827-3 0  9993",
    "line2": "2 69610  51.8805 257.2285 0007864 330.1587  29.8951 15.38440582  5733"
  },
  {
    "name": "KUIPER-00542",
    "noradId": "69611",
    "line1": "1 69611U 26140V   26197.55898344  .00012719  00000+0  34107-3 0  9994",
    "line2": "2 69611  51.8777 256.5811 0007895 311.2984  48.7323 15.38313003  5756"
  },
  {
    "name": "KUIPER-00543",
    "noradId": "69612",
    "line1": "1 69612U 26140W   26197.45894896  .00006734  00000+0  19447-3 0  9992",
    "line2": "2 69612  51.8773 257.3997 0008024  39.6029 320.5542 15.36847698  5735"
  },
  {
    "name": "KUIPER-00544",
    "noradId": "69613",
    "line1": "1 69613U 26140X   26197.43362012  .00015393  00000+0  41195-3 0  9997",
    "line2": "2 69613  51.8777 257.2376 0006940 323.8770  36.1747 15.38205711  5739"
  },
  {
    "name": "KUIPER-00546",
    "noradId": "69614",
    "line1": "1 69614U 26140Y   26197.47713772  .00022610  00000+0  60132-3 0  9997",
    "line2": "2 69614  51.8772 256.7878 0013992 271.9527  87.9857 15.38049034  5745"
  },
  {
    "name": "KUIPER-00547",
    "noradId": "69615",
    "line1": "1 69615U 26140Z   26197.55795108  .00012882  00000+0  34904-3 0  9998",
    "line2": "2 69615  51.8815 256.5843 0011119 295.2840  64.6995 15.37951847  5759"
  },
  {
    "name": "KUIPER-00549",
    "noradId": "69616",
    "line1": "1 69616U 26140AA  26197.57891654  .00013244  00000+0  36576-3 0  9994",
    "line2": "2 69616  51.8779 256.7102 0007924  19.5782 340.5508 15.37359191  5750"
  },
  {
    "name": "KUIPER-00550",
    "noradId": "69617",
    "line1": "1 69617U 26140AB  26197.43714061 -.00033367  00000+0 -10587-2 0  9999",
    "line2": "2 69617  51.8802 257.9951 0006310  56.0376 304.1207 15.31931422  5722"
  },
  {
    "name": "KUIPER-00551",
    "noradId": "69618",
    "line1": "1 69618U 26140AC  26197.55006505  .00016131  00000+0  42958-3 0  9996",
    "line2": "2 69618  51.8779 256.5241 0012509 285.0023  74.9579 15.38269864  5751"
  },
  {
    "name": "KUIPER-00554",
    "noradId": "69619",
    "line1": "1 69619U 26140AD  26197.49107539  .00013773  00000+0  37171-3 0  9999",
    "line2": "2 69619  51.8783 256.8766 0011182 296.5765  63.4076 15.38008374  5749"
  },
  {
    "name": "KUIPER-00555",
    "noradId": "69620",
    "line1": "1 69620U 26140AE  26197.58335648  .00052686  00000+0  13872-2 0  9992",
    "line2": "2 69620  51.8809 256.4111 0011416 285.7952 240.1864 15.37962741  5226"
  },
  {
    "name": "KUIPER-00556",
    "noradId": "69621",
    "line1": "1 69621U 26140AF  26197.55188939  .00013247  00000+0  35383-3 0  9991",
    "line2": "2 69621  51.8795 256.5407 0012210 272.8271  87.1319 15.38356550  5752"
  },
  {
    "name": "KUIPER-00557",
    "noradId": "69622",
    "line1": "1 69622U 26140AG  26197.56233305  .00016702  00000+0  45503-3 0  9995",
    "line2": "2 69622  51.8804 256.6107 0010216 305.3630  54.6401 15.37560263  5755"
  },
  {
    "name": "KUIPER-00560",
    "noradId": "69623",
    "line1": "1 69623U 26140AH  26197.58335648  .00051857  00000+0  14105-2 0  9994",
    "line2": "2 69623  51.8780 256.4022 0009421 318.2513 207.4590 15.36985395  5339"
  },
  {
    "name": "KUIPER-00561",
    "noradId": "69624",
    "line1": "1 69624U 26140AJ  26197.42390591  .00012821  00000+0  33889-3 0  9995",
    "line2": "2 69624  51.8812 257.1893 0007665 305.7051  54.3223 15.38751926  5735"
  },
  {
    "name": "KUIPER-00564",
    "noradId": "69625",
    "line1": "1 69625U 26140AK  26197.55961459  .00011868  00000+0  33012-3 0  9995",
    "line2": "2 69625  51.8794 256.5928 0009287 306.5552  53.4579 15.37234034  5755"
  },
  {
    "name": "KUIPER-00567",
    "noradId": "69626",
    "line1": "1 69626U 26140AL  26197.58335648  .00051886  00000+0  13510-2 0  9998",
    "line2": "2 69626  51.8765 256.3532 0012913 275.8318 272.9996 15.38294691  5736"
  },
  {
    "name": "KUIPER-00573",
    "noradId": "69627",
    "line1": "1 69627U 26140AM  26197.56619218  .00010817  00000+0  29924-3 0  9991",
    "line2": "2 69627  51.8777 256.6274 0009381 291.6206  68.3781 15.37506039  5755"
  },
  {
    "name": "KUIPER-00258",
    "noradId": "69763",
    "line1": "1 69763U 26151A   26197.43870303 -.00157619  00000+0 -46363-2 0  9993",
    "line2": "2 69763  51.8672 174.5626 0012411 167.6330 192.4963 15.35045911  2200"
  },
  {
    "name": "KUIPER-00526",
    "noradId": "69764",
    "line1": "1 69764U 26151B   26197.55219563  .00011639  00000+0  32313-3 0  9992",
    "line2": "2 69764  51.8759 173.8315 0005902 143.0635 217.0760 15.37335723  2223"
  },
  {
    "name": "KUIPER-00558",
    "noradId": "69765",
    "line1": "1 69765U 26151C   26197.55751020 -.00173721  00000+0 -51085-2 0  9991",
    "line2": "2 69765  51.8752 173.8660 0007418 157.2281 202.9035 15.35186651  2228"
  },
  {
    "name": "KUIPER-00569",
    "noradId": "69766",
    "line1": "1 69766U 26151D   26197.42053634  .00147069  00000+0  38488-2 0  9990",
    "line2": "2 69766  51.8774 174.4478 0003566 139.8001 220.3251 15.37675352  2208"
  },
  {
    "name": "KUIPER-00589",
    "noradId": "69767",
    "line1": "1 69767U 26151E   26197.48634668  .00002813  00000+0  86126-4 0  9990",
    "line2": "2 69767  51.8750 174.1407 0005401 146.7112 213.4215 15.37366483  2218"
  },
  {
    "name": "KUIPER-00598",
    "noradId": "69768",
    "line1": "1 69768U 26151F   26197.30862518 -.00716870  00000+0 -23330-1 0  9991",
    "line2": "2 69768  51.8664 175.1913 0017223 146.2210 213.9876 15.33661092  2189"
  },
  {
    "name": "KUIPER-00604",
    "noradId": "69769",
    "line1": "1 69769U 26151G   26197.47870114  .00008806  00000+0  24006-3 0  9995",
    "line2": "2 69769  51.8797 174.0877 0002703 110.2726 249.8552 15.38250655  2211"
  },
  {
    "name": "KUIPER-00609",
    "noradId": "69770",
    "line1": "1 69770U 26151H   26197.53981409  .00012223  00000+0  32477-3 0  9993",
    "line2": "2 69770  51.8804 173.7473 0001077  58.6162 301.4931 15.38657691  2220"
  },
  {
    "name": "KUIPER-00611",
    "noradId": "69771",
    "line1": "1 69771U 26151J   26197.54169589  .00012996  00000+0  34673-3 0  9999",
    "line2": "2 69771  51.8804 173.7561 0001612 107.3381 252.7783 15.38468737  2223"
  },
  {
    "name": "KUIPER-00612",
    "noradId": "69772",
    "line1": "1 69772U 26151K   26197.54641884  .00012247  00000+0  33277-3 0  9991",
    "line2": "2 69772  51.8792 173.7927 0003619 119.5701 240.5647 15.37960292  2222"
  },
  {
    "name": "KUIPER-00614",
    "noradId": "69773",
    "line1": "1 69773U 26151L   26197.54446451  .00011692  00000+0  31610-3 0  9997",
    "line2": "2 69773  51.8804 173.7764 0002679 126.8385 233.2848 15.38167261  2228"
  },
  {
    "name": "KUIPER-00615",
    "noradId": "69774",
    "line1": "1 69774U 26151M   26197.42301052  .00008067  00000+0  22801-3 0  9996",
    "line2": "2 69774  51.8770 174.4652 0006127 152.0623 208.0693 15.37238610  2205"
  },
  {
    "name": "KUIPER-00616",
    "noradId": "69775",
    "line1": "1 69775U 26151N   26197.54289814  .00012849  00000+0  34354-3 0  9990",
    "line2": "2 69775  51.8784 173.7711 0003089 126.8965 233.2306 15.38413416  2224"
  },
  {
    "name": "KUIPER-00617",
    "noradId": "69776",
    "line1": "1 69776U 26151P   26197.48265686  .00011194  00000+0  30667-3 0  9990",
    "line2": "2 69776  51.8795 174.1139 0004033 140.8794 219.2485 15.37799024  2214"
  },
  {
    "name": "KUIPER-00619",
    "noradId": "69777",
    "line1": "1 69777U 26151Q   26197.54072633  .00012421  00000+0  33088-3 0  9990",
    "line2": "2 69777  51.8801 173.7524 0001798  67.9903 292.1275 15.38561412  2229"
  },
  {
    "name": "KUIPER-00621",
    "noradId": "69778",
    "line1": "1 69778U 26151R   26197.54281958  .00012306  00000+0  33015-3 0  9995",
    "line2": "2 69778  51.8794 173.7695 0001995 116.2910 243.8283 15.38351143  2225"
  },
  {
    "name": "KUIPER-00622",
    "noradId": "69779",
    "line1": "1 69779U 26151S   26197.48995136  .00008138  00000+0  23166-3 0  9993",
    "line2": "2 69779  51.8730 174.1633 0006728 152.5718 207.5625 15.37000023  2214"
  },
  {
    "name": "KUIPER-00623",
    "noradId": "69780",
    "line1": "1 69780U 26151T   26197.55056481  .00029116  00000+0  78736-3 0  9996",
    "line2": "2 69780  51.8776 173.8214 0005418 145.6105 214.5234 15.37467237  2224"
  },
  {
    "name": "KUIPER-00626",
    "noradId": "69781",
    "line1": "1 69781U 26151U   26197.43550122 -.00018917  00000+0 -53145-3 0  9991",
    "line2": "2 69781  51.8714 174.5445 0009111 167.6552 192.4658 15.35389673  2202"
  },
  {
    "name": "KUIPER-00627",
    "noradId": "69782",
    "line1": "1 69782U 26151V   26197.56748262 -.00004859  00000+0 -12803-3 0  9996",
    "line2": "2 69782  51.8690 173.9269 0010883 169.8622 190.2585 15.35360388  2222"
  },
  {
    "name": "KUIPER-00629",
    "noradId": "69783",
    "line1": "1 69783U 26151W   26197.49185472 -.00212233  00000+0 -64058-2 0  9992",
    "line2": "2 69783  51.8762 174.1844 0007288 157.8316 202.2986 15.34541496  2215"
  },
  {
    "name": "KUIPER-00631",
    "noradId": "69784",
    "line1": "1 69784U 26151X   26197.49317500 -.00367107  00000+0 -10995-1 0  9993",
    "line2": "2 69784  51.8719 174.1854 0007776 165.1026 195.0191 15.35427014  2218"
  },
  {
    "name": "KUIPER-00634",
    "noradId": "69785",
    "line1": "1 69785U 26151Y   26197.41820614  .00010723  00000+0  29462-3 0  9999",
    "line2": "2 69785  51.8768 174.4350 0003847 144.0284 216.0963 15.37757974  2207"
  }
]